{
"type": "FeatureCollection",
"name": "points",
"crs": { "type": "name", "properties": { "name": "urn:ogc:def:crs:OGC:1.3:CRS84" } },
"features": [
{ "type": "Feature", "properties": { "N°": 1, "NORTE": 998090.376, "ESTE": 661644.039, "COTA": 48.986, "DESCRIPCIÓN": "ACRE (Afuera entrada/Vía Patacón)" }, "geometry": { "type": "Point", "coordinates": [ -79.529406800434671, 9.026345527111403 ] } },
{ "type": "Feature", "properties": { "N°": 2, "NORTE": 997691.6716, "ESTE": 661303.4198, "COTA": 51.8543, "DESCRIPCIÓN": "ALJIBE UTP" }, "geometry": { "type": "Point", "coordinates": [ -79.532519533901066, 9.022752796826973 ] } },
{ "type": "Feature", "properties": { "N°": 3, "NORTE": 997810.246, "ESTE": 661250.475, "COTA": 54.762, "DESCRIPCIÓN": "AULA 1" }, "geometry": { "type": "Point", "coordinates": [ -79.532996766258421, 9.023826880906913 ] } },
{ "type": "Feature", "properties": { "N°": 4, "NORTE": 997797.468, "ESTE": 661228.315, "COTA": 54.005, "DESCRIPCIÓN": "AULA 2" }, "geometry": { "type": "Point", "coordinates": [ -79.533198791938432, 9.023712145799086 ] } },
{ "type": "Feature", "properties": { "N°": 5, "NORTE": 997752.687, "ESTE": 661172.343, "COTA": 54.213, "DESCRIPCIÓN": "AULA 3" }, "geometry": { "type": "Point", "coordinates": [ -79.533709527032471, 9.023309263841478 ] } },
{ "type": "Feature", "properties": { "N°": 6, "NORTE": 997776.267, "ESTE": 661136.434, "COTA": 55.619, "DESCRIPCIÓN": "AULA 4" }, "geometry": { "type": "Point", "coordinates": [ -79.534035280397248, 9.023523779911299 ] } },
{ "type": "Feature", "properties": { "N°": 7, "NORTE": 998091.0273, "ESTE": 661466.1709, "COTA": 48.3905, "DESCRIPCIÓN": "BALON" }, "geometry": { "type": "Point", "coordinates": [ -79.531024606097546, 9.026357890422908 ] } },
{ "type": "Feature", "properties": { "N°": 8, "NORTE": 997624.9041, "ESTE": 661215.0157, "COTA": 51.8708, "DESCRIPCIÓN": "CAFE" }, "geometry": { "type": "Point", "coordinates": [ -79.533326059844896, 9.022152289223193 ] } },
{ "type": "Feature", "properties": { "N°": 9, "NORTE": 997723.742, "ESTE": 661139.284, "COTA": 55.449, "DESCRIPCIÓN": "CALDE 1 (Diagonal a Octavio)" }, "geometry": { "type": "Point", "coordinates": [ -79.534011275452002, 9.023048740195296 ] } },
{ "type": "Feature", "properties": { "N°": 10, "NORTE": 997813.53, "ESTE": 661461.753, "COTA": 56.534, "DESCRIPCIÓN": "CALDE 3 (Tubo hacia Rectoria)" }, "geometry": { "type": "Point", "coordinates": [ -79.531074942998728, 9.023848896489707 ] } },
{ "type": "Feature", "properties": { "N°": 11, "NORTE": 997702.257, "ESTE": 661163.251, "COTA": 55.38, "DESCRIPCIÓN": "CALDERÓN (Diagonal a Octavio)" }, "geometry": { "type": "Point", "coordinates": [ -79.533794065604567, 9.022853600832333 ] } },
{ "type": "Feature", "properties": { "N°": 12, "NORTE": 997858.566, "ESTE": 661314.464, "COTA": 56.348, "DESCRIPCIÓN": "CERO (0)" }, "geometry": { "type": "Point", "coordinates": [ -79.532412980724928, 9.024261470287316 ] } },
{ "type": "Feature", "properties": { "N°": 13, "NORTE": 997942.104, "ESTE": 661369.408, "COTA": 54.303, "DESCRIPCIÓN": "CIEN (100)" }, "geometry": { "type": "Point", "coordinates": [ -79.531910176089056, 9.025014831639394 ] } },
{ "type": "Feature", "properties": { "N°": 14, "NORTE": 997808.183, "ESTE": 661292.419, "COTA": 55.593, "DESCRIPCIÓN": "DIANA" }, "geometry": { "type": "Point", "coordinates": [ -79.532615335083051, 9.023806703465052 ] } },
{ "type": "Feature", "properties": { "N°": 15, "NORTE": 997866.914, "ESTE": 661319.969, "COTA": 56.256, "DESCRIPCIÓN": "DIEZ (10)" }, "geometry": { "type": "Point", "coordinates": [ -79.532362604159971, 9.024336753640497 ] } },
{ "type": "Feature", "properties": { "N°": 16, "NORTE": 997826.881, "ESTE": 661305.048, "COTA": 56.09, "DESCRIPCIÓN": "DONATO" }, "geometry": { "type": "Point", "coordinates": [ -79.532499783186111, 9.023975313701367 ] } },
{ "type": "Feature", "properties": { "N°": 17, "NORTE": 997763.373, "ESTE": 661433.075, "COTA": 57.137, "DESCRIPCIÓN": "EDIF 1 CA" }, "geometry": { "type": "Point", "coordinates": [ -79.531337621451598, 9.023396415313758 ] } },
{ "type": "Feature", "properties": { "N°": 18, "NORTE": 997844.353, "ESTE": 661290.483, "COTA": 56.168, "DESCRIPCIÓN": "EDIF 1 CB" }, "geometry": { "type": "Point", "coordinates": [ -79.532631622376499, 9.024133826324798 ] } },
{ "type": "Feature", "properties": { "N°": 20, "NORTE": 998080.443, "ESTE": 661470.258, "COTA": 48.579, "DESCRIPCIÓN": "ELOY (Diagonal a FIC 3-Cancha)" }, "geometry": { "type": "Point", "coordinates": [ -79.530987818506304, 9.026262037588255 ] } },
{ "type": "Feature", "properties": { "N°": 21, "NORTE": 997574.4926, "ESTE": 661242.5672, "COTA": 49.3005, "DESCRIPCIÓN": "FIC 1" }, "geometry": { "type": "Point", "coordinates": [ -79.533077304346421, 9.021695463232062 ] } },
{ "type": "Feature", "properties": { "N°": 22, "NORTE": 997812.615, "ESTE": 661461.427, "COTA": 56.532, "DESCRIPCIÓN": "FIC 2 ( Al lado de CALDE 3)" }, "geometry": { "type": "Point", "coordinates": [ -79.531077941641072, 9.023840634835604 ] } },
{ "type": "Feature", "properties": { "N°": 23, "NORTE": 998137.43, "ESTE": 661459.533, "COTA": 49.168, "DESCRIPCIÓN": "FIC 3 (Cancha)" }, "geometry": { "type": "Point", "coordinates": [ -79.53108328421348, 9.026777709103895 ] } },
{ "type": "Feature", "properties": { "N°": 24, "NORTE": 997694.274, "ESTE": 661153.156, "COTA": 55.168, "DESCRIPCIÓN": "FIC 4" }, "geometry": { "type": "Point", "coordinates": [ -79.533886177105401, 9.022781784153887 ] } },
{ "type": "Feature", "properties": { "N°": 25, "NORTE": 998037.52, "ESTE": 661430.508, "COTA": 51.822, "DESCRIPCIÓN": "GUERRERO" }, "geometry": { "type": "Point", "coordinates": [ -79.531350941794898, 9.025875369975921 ] } },
{ "type": "Feature", "properties": { "N°": 26, "NORTE": 998019.205, "ESTE": 661035.267, "COTA": 56.331, "DESCRIPCIÓN": "GYM (Final Edif/ Nuevo Investig)" }, "geometry": { "type": "Point", "coordinates": [ -79.534946591930819, 9.025724120773463 ] } },
{ "type": "Feature", "properties": { "N°": 27, "NORTE": 997796.069, "ESTE": 661098.773, "COTA": 55.844, "DESCRIPCIÓN": "INVESTIG 1" }, "geometry": { "type": "Point", "coordinates": [ -79.534377107599411, 9.023704198266497 ] } },
{ "type": "Feature", "properties": { "N°": 28, "NORTE": 997792.08, "ESTE": 661054.153, "COTA": 53.218, "DESCRIPCIÓN": "INVESTIG 2" }, "geometry": { "type": "Point", "coordinates": [ -79.534783099784079, 9.023669748146256 ] } },
{ "type": "Feature", "properties": { "N°": 29, "NORTE": 997898.223, "ESTE": 661004.701, "COTA": 53.29, "DESCRIPCIÓN": "INVESTIG 3" }, "geometry": { "type": "Point", "coordinates": [ -79.535229024330121, 9.024631297804621 ] } },
{ "type": "Feature", "properties": { "N°": 30, "NORTE": 997926.853, "ESTE": 661033.101, "COTA": 55.841, "DESCRIPCIÓN": "INVESTIG 4" }, "geometry": { "type": "Point", "coordinates": [ -79.534969663264945, 9.024889143106607 ] } },
{ "type": "Feature", "properties": { "N°": 31, "NORTE": 998026.6699, "ESTE": 661411.4049, "COTA": 52.3917, "DESCRIPCIÓN": "JOSY" }, "geometry": { "type": "Point", "coordinates": [ -79.531525094047979, 9.025777957132082 ] } },
{ "type": "Feature", "properties": { "N°": 32, "NORTE": 997835.902, "ESTE": 661297.525, "COTA": 56.415, "DESCRIPCIÓN": "JULIO (Tubo)" }, "geometry": { "type": "Point", "coordinates": [ -79.532567879848642, 9.024057155751199 ] } },
{ "type": "Feature", "properties": { "N°": 33, "NORTE": 997933.757, "ESTE": 661363.907, "COTA": 54.583, "DESCRIPCIÓN": "NOVENTA (90)" }, "geometry": { "type": "Point", "coordinates": [ -79.531960516435532, 9.024939557277605 ] } },
{ "type": "Feature", "properties": { "N°": 34, "NORTE": 997967.212, "ESTE": 661548.096, "COTA": 48.338, "DESCRIPCIÓN": "OCA 24" }, "geometry": { "type": "Point", "coordinates": [ -79.530283975243236, 9.025235361083489 ] } },
{ "type": "Feature", "properties": { "N°": 35, "NORTE": 997729.912, "ESTE": 661169.664, "COTA": 54.9, "DESCRIPCIÓN": "OCTAVIO (Diagonal a CALDERÓN)" }, "geometry": { "type": "Point", "coordinates": [ -79.533734725773499, 9.023103427296039 ] } },
{ "type": "Feature", "properties": { "N°": 36, "NORTE": 997706.3974, "ESTE": 661383.5544, "COTA": 54.4769, "DESCRIPCIÓN": "PARQ.CA" }, "geometry": { "type": "Point", "coordinates": [ -79.531790124240587, 9.022883037035626 ] } },
{ "type": "Feature", "properties": { "N°": 37, "NORTE": 997874.149, "ESTE": 661505.873, "COTA": 44.608, "DESCRIPCIÓN": "POSTG 20" }, "geometry": { "type": "Point", "coordinates": [ -79.530671426399721, 9.024395413916611 ] } },
{ "type": "Feature", "properties": { "N°": 38, "NORTE": 997917.152, "ESTE": 661534.608, "COTA": 47.281, "DESCRIPCIÓN": "POSTG 21" }, "geometry": { "type": "Point", "coordinates": [ -79.530408489679232, 9.024783205200274 ] } }
]
}
